STARLINK-35810          
1 66575U 25268U   25341.25005787 -.02023329  00000+0 -28621-1 0  9993
2 66575  42.9999 153.2886 0001762 271.6419 110.6504 15.59237027  3788
STARLINK-35814          
1 66576U 25268V   25341.25005787 -.02020423  00000+0 -28578-1 0  9997
2 66576  42.9999 153.2837 0001788 269.1519 115.0614 15.59232920  3784
STARLINK-35815          
1 66577U 25268W   25341.25005787 -.02020861  00000+0 -28585-1 0  9992
2 66577  43.0000 153.2791 0001798 269.0668 117.0631 15.59233390  3787
STARLINK-35743          
1 66578U 25268X   25341.25005787 -.02019464  00000+0 -28563-1 0  9996
2 66578  43.0002 153.2743 0001815 269.6415 118.4057 15.59232398  3787
STARLINK-35868          
1 66579U 25268Y   25341.25005787 -.02023206  00000+0 -28622-1 0  9992
2 66579  43.0003 153.2691 0001795 272.5437 117.4217 15.59233929  3783
STARLINK-35872          
1 66580U 25268Z   25341.25005787 -.02019659  00000+0 -28569-1 0  9991
2 66580  43.0005 153.2649 0001672 272.0057 119.8780 15.59231892  3785
STARLINK-35744          
1 66581U 25268AA  25341.25005787 -.02022075  00000+0 -28605-1 0  9999
2 66581  43.0003 153.2594 0001716 273.5591 120.2406 15.59233443  3731
STARLINK-35746          
1 66582U 25268AB  25341.25005787 -.02022517  00000+0 -28614-1 0  9991
2 66582  43.0003 153.2545 0001634 272.4824 123.2363 15.59233017  3781
STARLINK-35941          
1 66583U 25268AC  25341.25005787 -.02023623  00000+0 -28628-1 0  9996
2 66583  43.0003 153.2499 0001737 269.8804 127.7511 15.59235464  3784
STARLINK-35939          
1 66584U 25268AD  25341.25005787 -.02020535  00000+0 -28580-1 0  9993
2 66584  43.0003 153.2453 0001736 272.8183 126.7308 15.59233722  3786
STARLINK-35963          
1 66585U 25268AE  25341.25005787 -.02021616  00000+0 -28598-1 0  9994
2 66585  43.0000 153.2407 0001724 273.6661 127.8007 15.59233667  3786
TJS-21                  
1 66586U 25269A   25340.74145373  .00001105  00000+0 -14744-1 0  9991
2 66586  63.2668 162.9832 6805236 269.7989  18.6583  2.00560491   328
