CCSDS_OMM_VERS = 2.0
CREATION_DATE  = 
ORIGINATOR     = 

OBJECT_NAME    = STARLINK-35810
OBJECT_ID      = 2025-268U
CENTER_NAME    = EARTH
REF_FRAME      = TEME
TIME_SYSTEM    = UTC
MEAN_ELEMENT_THEORY = SGP/SGP4

EPOCH          = 2025-12-07T06:00:04.999968
MEAN_MOTION    = 15.59237027
ECCENTRICITY   = .00017623
INCLINATION    = 42.9999
RA_OF_ASC_NODE = 153.2886
ARG_OF_PERICENTER = 271.6419
MEAN_ANOMALY   = 110.6504

EPHEMERIS_TYPE = 0
CLASSIFICATION_TYPE = U
NORAD_CAT_ID   = 66575
ELEMENT_SET_NO = 999
REV_AT_EPOCH   = 378
BSTAR          = -.28621197E-1
MEAN_MOTION_DOT = -.2023329E-1
MEAN_MOTION_DDOT = 0

CCSDS_OMM_VERS = 2.0
CREATION_DATE  = 
ORIGINATOR     = 

OBJECT_NAME    = STARLINK-35814
OBJECT_ID      = 2025-268V
CENTER_NAME    = EARTH
REF_FRAME      = TEME
TIME_SYSTEM    = UTC
MEAN_ELEMENT_THEORY = SGP/SGP4

EPOCH          = 2025-12-07T06:00:04.999968
MEAN_MOTION    = 15.59232920
ECCENTRICITY   = .00017885
INCLINATION    = 42.9999
RA_OF_ASC_NODE = 153.2837
ARG_OF_PERICENTER = 269.1519
MEAN_ANOMALY   = 115.0614

EPHEMERIS_TYPE = 0
CLASSIFICATION_TYPE = U
NORAD_CAT_ID   = 66576
ELEMENT_SET_NO = 999
REV_AT_EPOCH   = 378
BSTAR          = -.28578341E-1
MEAN_MOTION_DOT = -.2020423E-1
MEAN_MOTION_DDOT = 0

CCSDS_OMM_VERS = 2.0
CREATION_DATE  = 
ORIGINATOR     = 

OBJECT_NAME    = STARLINK-35815
OBJECT_ID      = 2025-268W
CENTER_NAME    = EARTH
REF_FRAME      = TEME
TIME_SYSTEM    = UTC
MEAN_ELEMENT_THEORY = SGP/SGP4

EPOCH          = 2025-12-07T06:00:04.999968
MEAN_MOTION    = 15.59233390
ECCENTRICITY   = .00017988
INCLINATION    = 43.0000
RA_OF_ASC_NODE = 153.2791
ARG_OF_PERICENTER = 269.0668
MEAN_ANOMALY   = 117.0631

EPHEMERIS_TYPE = 0
CLASSIFICATION_TYPE = U
NORAD_CAT_ID   = 66577
ELEMENT_SET_NO = 999
REV_AT_EPOCH   = 378
BSTAR          = -.28584778E-1
MEAN_MOTION_DOT = -.2020861E-1
MEAN_MOTION_DDOT = 0

CCSDS_OMM_VERS = 2.0
CREATION_DATE  = 
ORIGINATOR     = 

OBJECT_NAME    = STARLINK-35743
OBJECT_ID      = 2025-268X
CENTER_NAME    = EARTH
REF_FRAME      = TEME
TIME_SYSTEM    = UTC
MEAN_ELEMENT_THEORY = SGP/SGP4

EPOCH          = 2025-12-07T06:00:04.999968
MEAN_MOTION    = 15.59232398
ECCENTRICITY   = .00018157
INCLINATION    = 43.0002
RA_OF_ASC_NODE = 153.2743
ARG_OF_PERICENTER = 269.6415
MEAN_ANOMALY   = 118.4057

EPHEMERIS_TYPE = 0
CLASSIFICATION_TYPE = U
NORAD_CAT_ID   = 66578
ELEMENT_SET_NO = 999
REV_AT_EPOCH   = 378
BSTAR          = -.28563049E-1
MEAN_MOTION_DOT = -.2019464E-1
MEAN_MOTION_DDOT = 0

CCSDS_OMM_VERS = 2.0
CREATION_DATE  = 
ORIGINATOR     = 

OBJECT_NAME    = STARLINK-35868
OBJECT_ID      = 2025-268Y
CENTER_NAME    = EARTH
REF_FRAME      = TEME
TIME_SYSTEM    = UTC
MEAN_ELEMENT_THEORY = SGP/SGP4

EPOCH          = 2025-12-07T06:00:04.999968
MEAN_MOTION    = 15.59233929
ECCENTRICITY   = .00017955
INCLINATION    = 43.0003
RA_OF_ASC_NODE = 153.2691
ARG_OF_PERICENTER = 272.5437
MEAN_ANOMALY   = 117.4217

EPHEMERIS_TYPE = 0
CLASSIFICATION_TYPE = U
NORAD_CAT_ID   = 66579
ELEMENT_SET_NO = 999
REV_AT_EPOCH   = 378
BSTAR          = -.28622204E-1
MEAN_MOTION_DOT = -.2023206E-1
MEAN_MOTION_DDOT = 0

CCSDS_OMM_VERS = 2.0
CREATION_DATE  = 
ORIGINATOR     = 

OBJECT_NAME    = STARLINK-35872
OBJECT_ID      = 2025-268Z
CENTER_NAME    = EARTH
REF_FRAME      = TEME
TIME_SYSTEM    = UTC
MEAN_ELEMENT_THEORY = SGP/SGP4

EPOCH          = 2025-12-07T06:00:04.999968
MEAN_MOTION    = 15.59231892
ECCENTRICITY   = .00016724
INCLINATION    = 43.0005
RA_OF_ASC_NODE = 153.2649
ARG_OF_PERICENTER = 272.0057
MEAN_ANOMALY   = 119.8780

EPHEMERIS_TYPE = 0
CLASSIFICATION_TYPE = U
NORAD_CAT_ID   = 66580
ELEMENT_SET_NO = 999
REV_AT_EPOCH   = 378
BSTAR          = -.28568572E-1
MEAN_MOTION_DOT = -.2019659E-1
MEAN_MOTION_DDOT = 0

CCSDS_OMM_VERS = 2.0
CREATION_DATE  = 
ORIGINATOR     = 

OBJECT_NAME    = STARLINK-35744
OBJECT_ID      = 2025-268AA
CENTER_NAME    = EARTH
REF_FRAME      = TEME
TIME_SYSTEM    = UTC
MEAN_ELEMENT_THEORY = SGP/SGP4

EPOCH          = 2025-12-07T06:00:04.999968
MEAN_MOTION    = 15.59233443
ECCENTRICITY   = .00017166
INCLINATION    = 43.0003
RA_OF_ASC_NODE = 153.2594
ARG_OF_PERICENTER = 273.5591
MEAN_ANOMALY   = 120.2406

EPHEMERIS_TYPE = 0
CLASSIFICATION_TYPE = U
NORAD_CAT_ID   = 66581
ELEMENT_SET_NO = 999
REV_AT_EPOCH   = 373
BSTAR          = -.28605425E-1
MEAN_MOTION_DOT = -.2022075E-1
MEAN_MOTION_DDOT = 0

CCSDS_OMM_VERS = 2.0
CREATION_DATE  = 
ORIGINATOR     = 

OBJECT_NAME    = STARLINK-35746
OBJECT_ID      = 2025-268AB
CENTER_NAME    = EARTH
REF_FRAME      = TEME
TIME_SYSTEM    = UTC
MEAN_ELEMENT_THEORY = SGP/SGP4

EPOCH          = 2025-12-07T06:00:04.999968
MEAN_MOTION    = 15.59233017
ECCENTRICITY   = .0001634
INCLINATION    = 43.0003
RA_OF_ASC_NODE = 153.2545
ARG_OF_PERICENTER = 272.4824
MEAN_ANOMALY   = 123.2363

EPHEMERIS_TYPE = 0
CLASSIFICATION_TYPE = U
NORAD_CAT_ID   = 66582
ELEMENT_SET_NO = 999
REV_AT_EPOCH   = 378
BSTAR          = -.28614069E-1
MEAN_MOTION_DOT = -.2022517E-1
MEAN_MOTION_DDOT = 0

CCSDS_OMM_VERS = 2.0
CREATION_DATE  = 
ORIGINATOR     = 

OBJECT_NAME    = STARLINK-35941
OBJECT_ID      = 2025-268AC
CENTER_NAME    = EARTH
REF_FRAME      = TEME
TIME_SYSTEM    = UTC
MEAN_ELEMENT_THEORY = SGP/SGP4

EPOCH          = 2025-12-07T06:00:04.999968
MEAN_MOTION    = 15.59235464
ECCENTRICITY   = .00017378
INCLINATION    = 43.0003
RA_OF_ASC_NODE = 153.2499
ARG_OF_PERICENTER = 269.8804
MEAN_ANOMALY   = 127.7511

EPHEMERIS_TYPE = 0
CLASSIFICATION_TYPE = U
NORAD_CAT_ID   = 66583
ELEMENT_SET_NO = 999
REV_AT_EPOCH   = 378
BSTAR          = -.28627982E-1
MEAN_MOTION_DOT = -.2023623E-1
MEAN_MOTION_DDOT = 0

CCSDS_OMM_VERS = 2.0
CREATION_DATE  = 
ORIGINATOR     = 

OBJECT_NAME    = STARLINK-35939
OBJECT_ID      = 2025-268AD
CENTER_NAME    = EARTH
REF_FRAME      = TEME
TIME_SYSTEM    = UTC
MEAN_ELEMENT_THEORY = SGP/SGP4

EPOCH          = 2025-12-07T06:00:04.999968
MEAN_MOTION    = 15.59233722
ECCENTRICITY   = .00017368
INCLINATION    = 43.0003
RA_OF_ASC_NODE = 153.2453
ARG_OF_PERICENTER = 272.8183
MEAN_ANOMALY   = 126.7308

EPHEMERIS_TYPE = 0
CLASSIFICATION_TYPE = U
NORAD_CAT_ID   = 66584
ELEMENT_SET_NO = 999
REV_AT_EPOCH   = 378
BSTAR          = -.28579923E-1
MEAN_MOTION_DOT = -.2020535E-1
MEAN_MOTION_DDOT = 0

CCSDS_OMM_VERS = 2.0
CREATION_DATE  = 
ORIGINATOR     = 

OBJECT_NAME    = STARLINK-35963
OBJECT_ID      = 2025-268AE
CENTER_NAME    = EARTH
REF_FRAME      = TEME
TIME_SYSTEM    = UTC
MEAN_ELEMENT_THEORY = SGP/SGP4

EPOCH          = 2025-12-07T06:00:04.999968
MEAN_MOTION    = 15.59233667
ECCENTRICITY   = .00017243
INCLINATION    = 43.0000
RA_OF_ASC_NODE = 153.2407
ARG_OF_PERICENTER = 273.6661
MEAN_ANOMALY   = 127.8007

EPHEMERIS_TYPE = 0
CLASSIFICATION_TYPE = U
NORAD_CAT_ID   = 66585
ELEMENT_SET_NO = 999
REV_AT_EPOCH   = 378
BSTAR          = -.28597633E-1
MEAN_MOTION_DOT = -.2021616E-1
MEAN_MOTION_DDOT = 0

CCSDS_OMM_VERS = 2.0
CREATION_DATE  = 
ORIGINATOR     = 

OBJECT_NAME    = TJS-21
OBJECT_ID      = 2025-269A
CENTER_NAME    = EARTH
REF_FRAME      = TEME
TIME_SYSTEM    = UTC
MEAN_ELEMENT_THEORY = SGP/SGP4

EPOCH          = 2025-12-06T17:47:41.602272
MEAN_MOTION    = 2.00560491
ECCENTRICITY   = .68052367
INCLINATION    = 63.2668
RA_OF_ASC_NODE = 162.9832
ARG_OF_PERICENTER = 269.7989
MEAN_ANOMALY   = 18.6583

EPHEMERIS_TYPE = 0
CLASSIFICATION_TYPE = U
NORAD_CAT_ID   = 66586
ELEMENT_SET_NO = 999
REV_AT_EPOCH   = 32
BSTAR          = -.14744059E-1
MEAN_MOTION_DOT = .1105E-4
MEAN_MOTION_DDOT = 0

